{"type": "FeatureCollection", "features": [ {"type": "Feature", "properties": {"norad_id": 58662, "name": "TIANMU-1 21", "group": "weather", "lat": 68.60430731053486, "lon": -64.90210076383137, "alt_km": 468.9677576327467, "timestamp": "2025-12-08T05:48:08.691980+00:00", "meta": {"OBJECT_NAME": "TIANMU-1 21", "OBJECT_ID": "2023-208C", "EPOCH": "2025-12-07T21:28:55.441632", "MEAN_MOTION": 15.31393836, "ECCENTRICITY": 0.00059192, "INCLINATION": 97.4381, "RA_OF_ASC_NODE": 95.2723, "ARG_OF_PERICENTER": 280.7436, "MEAN_ANOMALY": 79.3139, "EPHEMERIS_TYPE": 0, "CLASSIFICATION_TYPE": "U", "NORAD_CAT_ID": 58662, "ELEMENT_SET_NO": 999, "REV_AT_EPOCH": 10825, "BSTAR": 0.00046632027, "MEAN_MOTION_DOT": 0.00014078, "MEAN_MOTION_DDOT": 0}, "tle": {"line1": "1 58662U 23208C   25341.89508613  .00014078  00000+0  46632-3 0  9990", "line2": "2 58662  97.4381  95.2723 0005919 280.7436  79.3139 15.31393836108253"}}, "geometry": {"type": "Point", "coordinates": [-64.90210076383137, 68.60430731053486]}}, {"type": "Feature", "properties": {"norad_id": 58663, "name": "TIANMU-1 22", "group": "weather", "lat": 80.48594345369902, "lon": -35.42607436910035, "alt_km": 477.5395135876597, "timestamp": "2025-12-08T05:48:08.691990+00:00", "meta": {"OBJECT_NAME": "TIANMU-1 22", "OBJECT_ID": "2023-208D", "EPOCH": "2025-12-07T21:31:22.310400", "MEAN_MOTION": 15.27479714, "ECCENTRICITY": 0.0002829, "INCLINATION": 97.4388, "RA_OF_ASC_NODE": 93.0055, "ARG_OF_PERICENTER": 311.2381, "MEAN_ANOMALY": 48.8614, "EPHEMERIS_TYPE": 0, "CLASSIFICATION_TYPE": "U", "NORAD_CAT_ID": 58663, "ELEMENT_SET_NO": 999, "REV_AT_EPOCH": 10809, "BSTAR": 0.00041491477, "MEAN_MOTION_DOT": 0.00011088, "MEAN_MOTION_DDOT": 0}, "tle": {"line1": "1 58663U 23208D   25341.89678600  .00011088  00000+0  41491-3 0  9991", "line2": "2 58663  97.4388  93.0055 0002829 311.2381  48.8614 15.27479714108097"}}, "geometry": {"type": "Point", "coordinates": [-35.42607436910035, 80.48594345369902]}}, {"type": "Feature", "properties": {"norad_id": 58700, "name": "TIANMU-1 15", "group": "weather", "lat": -82.17649364620613, "lon": -123.71613442979589, "alt_km": 496.7172189989269, "timestamp": "2025-12-08T05:48:08.691999+00:00", "meta": {"OBJECT_NAME": "TIANMU-1 15", "OBJECT_ID": "2024-004A", "EPOCH": "2025-12-07T22:18:36.300384", "MEAN_MOTION": 15.24581817, "ECCENTRICITY": 0.00054693, "INCLINATION": 97.4627, "RA_OF_ASC_NODE": 163.4168, "ARG_OF_PERICENTER": 318.0858, "MEAN_ANOMALY": 41.996, "EPHEMERIS_TYPE": 0, "CLASSIFICATION_TYPE": "U", "NORAD_CAT_ID": 58700, "ELEMENT_SET_NO": 999, "REV_AT_EPOCH": 10661, "BSTAR": 0.0003828436, "MEAN_MOTION_DOT": 9.37e-05, "MEAN_MOTION_DDOT": 0}, "tle": {"line1": "1 58700U 24004A   25341.92958681  .00009370  00000+0  38284-3 0  9999", "line2": "2 58700  97.4627 163.4168 0005469 318.0858  41.9960 15.24581817106618"}}, "geometry": {"type": "Point", "coordinates": [-123.71613442979589, -82.17649364620613]}}, {"type": "Feature", "properties": {"norad_id": 58701, "name": "TIANMU-1 16", "group": "weather", "lat": -1.85567986935879, "lon": 163.36472783460363, "alt_km": 493.69107792910927, "timestamp": "2025-12-08T05:48:08.692009+00:00", "meta": {"OBJECT_NAME": "TIANMU-1 16", "OBJECT_ID": "2024-004B", "EPOCH": "2025-12-07T23:30:31.488768", "MEAN_MOTION": 15.24335259, "ECCENTRICITY": 0.00047457, "INCLINATION": 97.4567, "RA_OF_ASC_NODE": 162.8607, "ARG_OF_PERICENTER": 316.8076, "MEAN_ANOMALY": 43.2789, "EPHEMERIS_TYPE": 0, "CLASSIFICATION_TYPE": "U", "NORAD_CAT_ID": 58701, "ELEMENT_SET_NO": 999, "REV_AT_EPOCH": 10662, "BSTAR": 0.00038187356, "MEAN_MOTION_DOT": 9.276e-05, "MEAN_MOTION_DDOT": 0}, "tle": {"line1": "1 58701U 24004B   25341.97953112  .00009276  00000+0  38187-3 0  9996", "line2": "2 58701  97.4567 162.8607 0004745 316.8076  43.2789 15.24335259106629"}}, "geometry": {"type": "Point", "coordinates": [163.36472783460363, -1.85567986935879]}}, {"type": "Feature", "properties": {"norad_id": 58702, "name": "TIANMU-1 17", "group": "weather", "lat": 79.08565525039964, "lon": 120.72138302599294, "alt_km": 486.7379714388535, "timestamp": "2025-12-08T05:48:08.692019+00:00", "meta": {"OBJECT_NAME": "TIANMU-1 17", "OBJECT_ID": "2024-004C", "EPOCH": "2025-12-07T23:08:32.465760", "MEAN_MOTION": 15.24380051, "ECCENTRICITY": 0.00039646, "INCLINATION": 97.4601, "RA_OF_ASC_NODE": 163.2531, "ARG_OF_PERICENTER": 321.0447, "MEAN_ANOMALY": 39.0504, "EPHEMERIS_TYPE": 0, "CLASSIFICATION_TYPE": "U", "NORAD_CAT_ID": 58702, "ELEMENT_SET_NO": 999, "REV_AT_EPOCH": 10661, "BSTAR": 0.00036501369, "MEAN_MOTION_DOT": 8.874e-05, "MEAN_MOTION_DDOT": 0}, "tle": {"line1": "1 58702U 24004C   25341.96426465  .00008874  00000+0  36501-3 0  9993", "line2": "2 58702  97.4601 163.2531 0003964 321.0447  39.0504 15.24380051106619"}}, "geometry": {"type": "Point", "coordinates": [120.72138302599294, 79.08565525039964]}}, {"type": "Feature", "properties": {"norad_id": 58703, "name": "TIANMU-1 18", "group": "weather", "lat": 6.150279534347229, "lon": -15.467222433524261, "alt_km": 496.8506804204271, "timestamp": "2025-12-08T05:48:08.692029+00:00", "meta": {"OBJECT_NAME": "TIANMU-1 18", "OBJECT_ID": "2024-004D", "EPOCH": "2025-12-07T22:44:27.650400", "MEAN_MOTION": 15.24368974, "ECCENTRICITY": 0.00033263, "INCLINATION": 97.4619, "RA_OF_ASC_NODE": 163.4306, "ARG_OF_PERICENTER": 322.2509, "MEAN_ANOMALY": 37.8494, "EPHEMERIS_TYPE": 0, "CLASSIFICATION_TYPE": "U", "NORAD_CAT_ID": 58703, "ELEMENT_SET_NO": 999, "REV_AT_EPOCH": 10661, "BSTAR": 0.00035622282, "MEAN_MOTION_DOT": 8.655e-05, "MEAN_MOTION_DDOT": 0}, "tle": {"line1": "1 58703U 24004D   25341.94754225  .00008655  00000+0  35622-3 0  9990", "line2": "2 58703  97.4619 163.4306 0003326 322.2509  37.8494 15.24368974106619"}}, "geometry": {"type": "Point", "coordinates": [-15.467222433524261, 6.150279534347229]}}, {"type": "Feature", "properties": {"norad_id": 58990, "name": "INSAT-3DS", "group": "weather", "lat": -0.01689036969907902, "lon": -113.63782579905885, "alt_km": 35779.8378322277, "timestamp": "2025-12-08T05:48:08.692040+00:00", "meta": {"OBJECT_NAME": "INSAT-3DS", "OBJECT_ID": "2024-033A", "EPOCH": "2025-12-07T21:55:38.755200", "MEAN_MOTION": 1.00269567, "ECCENTRICITY": 0.00017015, "INCLINATION": 0.007, "RA_OF_ASC_NODE": 39.1989, "ARG_OF_PERICENTER": 224.3969, "MEAN_ANOMALY": 224.3322, "EPHEMERIS_TYPE": 0, "CLASSIFICATION_TYPE": "U", "NORAD_CAT_ID": 58990, "ELEMENT_SET_NO": 999, "REV_AT_EPOCH": 4515, "BSTAR": 0, "MEAN_MOTION_DOT": -1.53e-06, "MEAN_MOTION_DDOT": 0}, "tle": {"line1": "1 58990U 24033A   25341.91364300 -.00000153  00000+0  00000+0 0  9992", "line2": "2 58990   0.0070  39.1989 0001701 224.3969 224.3322  1.00269567 45152"}}, "geometry": {"type": "Point", "coordinates": [-113.63782579905885, -0.01689036969907902]}}, {"type": "Feature", "properties": {"norad_id": 59051, "name": "METEOR-M2 4", "group": "weather", "lat": -17.48710636091178, "lon": 116.46395387512798, "alt_km": 827.3677381129883, "timestamp": "2025-12-08T05:48:08.692051+00:00", "meta": {"OBJECT_NAME": "METEOR-M2 4", "OBJECT_ID": "2024-039A", "EPOCH": "2025-12-07T22:07:24.474720", "MEAN_MOTION": 14.22400065, "ECCENTRICITY": 0.00073101, "INCLINATION": 98.6761, "RA_OF_ASC_NODE": 298.9064, "ARG_OF_PERICENTER": 12.2282, "MEAN_ANOMALY": 347.9072, "EPHEMERIS_TYPE": 0, "CLASSIFICATION_TYPE": "U", "NORAD_CAT_ID": 59051, "ELEMENT_SET_NO": 999, "REV_AT_EPOCH": 9207, "BSTAR": 5.7543949e-05, "MEAN_MOTION_DOT": 8.5e-07, "MEAN_MOTION_DDOT": 0}, "tle": {"line1": "1 59051U 24039A   25341.92181105  .00000085  00000+0  57544-4 0  9991", "line2": "2 59051  98.6761 298.9064 0007310  12.2282 347.9072 14.22400065 92079"}}, "geometry": {"type": "Point", "coordinates": [116.46395387512798, -17.48710636091178]}}, {"type": "Feature", "properties": {"norad_id": 60133, "name": "GOES 19", "group": "weather", "lat": 0.002749720141083028, "lon": 89.10773051426554, "alt_km": 35790.954534545126, "timestamp": "2025-12-08T05:48:08.692062+00:00", "meta": {"OBJECT_NAME": "GOES 19", "OBJECT_ID": "2024-119A", "EPOCH": "2025-12-07T20:07:28.724160", "MEAN_MOTION": 1.00271591, "ECCENTRICITY": 0.0001346, "INCLINATION": 0.011, "RA_OF_ASC_NODE": 94.0306, "ARG_OF_PERICENTER": 207.9913, "MEAN_ANOMALY": 1.5194, "EPHEMERIS_TYPE": 0, "CLASSIFICATION_TYPE": "U", "NORAD_CAT_ID": 60133, "ELEMENT_SET_NO": 999, "REV_AT_EPOCH": 504, "BSTAR": 0, "MEAN_MOTION_DOT": -2.45e-06, "MEAN_MOTION_DDOT": 0}, "tle": {"line1": "1 60133U 24119A   25341.83852690 -.00000245  00000+0  00000+0 0  9996", "line2": "2 60133   0.0110  94.0306 0001346 207.9913   1.5194  1.00271591  5049"}}, "geometry": {"type": "Point", "coordinates": [89.10773051426554, 0.002749720141083028]}}, {"type": "Feature", "properties": {"norad_id": 65815, "name": "FENGYUN 3H", "group": "weather", "lat": 61.80841616896766, "lon": 118.44452043133985, "alt_km": 819.2813909876722, "timestamp": "2025-12-08T05:48:08.692074+00:00", "meta": {"OBJECT_NAME": "FENGYUN 3H", "OBJECT_ID": "2025-219A", "EPOCH": "2025-12-07T22:29:20.680224", "MEAN_MOTION": 14.19902505, "ECCENTRICITY": 6.085e-05, "INCLINATION": 98.6578, "RA_OF_ASC_NODE": 281.6319, "ARG_OF_PERICENTER": 81.2582, "MEAN_ANOMALY": 278.8663, "EPHEMERIS_TYPE": 0, "CLASSIFICATION_TYPE": "U", "NORAD_CAT_ID": 65815, "ELEMENT_SET_NO": 999, "REV_AT_EPOCH": 1024, "BSTAR": 0.00010869283, "MEAN_MOTION_DOT": 1.88e-06, "MEAN_MOTION_DDOT": 0}, "tle": {"line1": "1 65815U 25219A   25341.93704491  .00000188  00000+0  10869-3 0  9999", "line2": "2 65815  98.6578 281.6319 0000608  81.2582 278.8663 14.19902505 10243"}}, "geometry": {"type": "Point", "coordinates": [118.44452043133985, 61.80841616896766]}}]}